start=new Date('2021-12-09T00:00:00.000Z').valueOf();
sats=[{"RCS_SIZE":"LARGE","NORAD_CAT_ID":"45401","TIME_SYSTEM":"UTC","SITE":"AFETR","REV_AT_EPOCH":"9606","SEMIMAJOR_AXIS":"6925.364","OBJECT_ID":"2020-019AT","MEAN_MOTION_DOT":"0.00000248","OBJECT_TYPE":"PAYLOAD","TLE_LINE2":"2 45401  53.0546 262.8453 0002132  59.6780 300.4420 15.06395076 96068","PERIAPSIS":"545.752","EPOCH":"2021-12-08T21:46:05.153376","MEAN_MOTION_DDOT":"0.0000000000000","BSTAR":"0.00003554200000","COUNTRY_CODE":"US","RA_OF_ASC_NODE":"262.8453","CENTER_NAME":"EARTH","ARG_OF_PERICENTER":"59.6780","MEAN_ANOMALY":"300.4420","MEAN_MOTION":"15.06395076","FILE":"3235972","INCLINATION":"53.0546","REF_FRAME":"TEME","LAUNCH_DATE":"2020-03-18","ELEMENT_SET_NO":"999","GP_ID":"191363077","APOAPSIS":"548.705","OBJECT_NAME":"STARLINK-1256","MEAN_ELEMENT_THEORY":"SGP4","TLE_LINE1":"1 45401U 20019AT  21342.90700409  .00000248  00000-0  35542-4 0  9994","EPHEMERIS_TYPE":"0","ECCENTRICITY":"0.00021320","PERIOD":"95.592","DECAY_DATE":null,"CLASSIFICATION_TYPE":"U"},{"MEAN_ELEMENT_THEORY":"SGP4","TLE_LINE1":"1 45402U 20019AU  21342.90331991 -.00000485  00000-0 -13668-4 0  9991","EPHEMERIS_TYPE":"0","DECAY_DATE":null,"PERIOD":"95.593","CLASSIFICATION_TYPE":"U","ECCENTRICITY":"0.00022870","REF_FRAME":"TEME","FILE":"3235972","INCLINATION":"53.0547","ELEMENT_SET_NO":"999","LAUNCH_DATE":"2020-03-18","MEAN_ANOMALY":"299.6155","ARG_OF_PERICENTER":"60.5062","MEAN_MOTION":"15.06390488","APOAPSIS":"548.827","OBJECT_NAME":"STARLINK-1257","GP_ID":"191362827","BSTAR":"-0.00001366800000","MEAN_MOTION_DDOT":"0.0000000000000","RA_OF_ASC_NODE":"262.8556","COUNTRY_CODE":"US","TLE_LINE2":"2 45402  53.0547 262.8556 0002287  60.5062 299.6155 15.06390488 96076","EPOCH":"2021-12-08T21:40:46.840224","PERIAPSIS":"545.659","CENTER_NAME":"EARTH","SITE":"AFETR","REV_AT_EPOCH":"9607","RCS_SIZE":"LARGE","NORAD_CAT_ID":"45402","TIME_SYSTEM":"UTC","OBJECT_TYPE":"PAYLOAD","MEAN_MOTION_DOT":"-0.00000485","SEMIMAJOR_AXIS":"6925.378","OBJECT_ID":"2020-019AU"},{"OBJECT_TYPE":"PAYLOAD","MEAN_MOTION_DOT":"-0.00000192","OBJECT_ID":"2020-019AV","SEMIMAJOR_AXIS":"6925.371","REV_AT_EPOCH":"9604","SITE":"AFETR","NORAD_CAT_ID":"45403","TIME_SYSTEM":"UTC","RCS_SIZE":"LARGE","CENTER_NAME":"EARTH","RA_OF_ASC_NODE":"263.3958","COUNTRY_CODE":"US","BSTAR":"0.00000600830000","MEAN_MOTION_DDOT":"0.0000000000000","EPOCH":"2021-12-08T18:50:55.636224","PERIAPSIS":"545.805","TLE_LINE2":"2 45403  53.0548 263.3958 0002066  65.5876 294.5329 15.06392640 96049","OBJECT_NAME":"STARLINK-1259","APOAPSIS":"548.667","GP_ID":"191361575","ELEMENT_SET_NO":"999","LAUNCH_DATE":"2020-03-18","FILE":"3235972","INCLINATION":"53.0548","REF_FRAME":"TEME","MEAN_MOTION":"15.06392640","MEAN_ANOMALY":"294.5329","ARG_OF_PERICENTER":"65.5876","CLASSIFICATION_TYPE":"U","PERIOD":"95.593","DECAY_DATE":null,"ECCENTRICITY":"0.00020660","TLE_LINE1":"1 45403U 20019AV  21342.78536616 -.00000192  00000-0  60083-5 0  9997","EPHEMERIS_TYPE":"0","MEAN_ELEMENT_THEORY":"SGP4"},{"OBJECT_ID":"2020-019AW","SEMIMAJOR_AXIS":"6925.350","OBJECT_TYPE":"PAYLOAD","MEAN_MOTION_DOT":"-0.00000492","NORAD_CAT_ID":"45404","TIME_SYSTEM":"UTC","RCS_SIZE":"LARGE","REV_AT_EPOCH":"9597","SITE":"AFETR","CENTER_NAME":"EARTH","PERIAPSIS":"545.812","EPOCH":"2021-12-08T22:17:55.408128","TLE_LINE2":"2 45404  53.0542 262.7392 0002025  58.7993 301.3194 15.06399602 95971","COUNTRY_CODE":"US","RA_OF_ASC_NODE":"262.7392","MEAN_MOTION_DDOT":"0.0000000000000","BSTAR":"-0.00001410300000","GP_ID":"191361825","OBJECT_NAME":"STARLINK-1260","APOAPSIS":"548.617","MEAN_MOTION":"15.06399602","MEAN_ANOMALY":"301.3194","ARG_OF_PERICENTER":"58.7993","LAUNCH_DATE":"2020-03-18","ELEMENT_SET_NO":"999","INCLINATION":"53.0542","FILE":"3235972","REF_FRAME":"TEME","ECCENTRICITY":"0.00020250","CLASSIFICATION_TYPE":"U","DECAY_DATE":null,"PERIOD":"95.592","TLE_LINE1":"1 45404U 20019AW  21342.92911352 -.00000492  00000-0 -14103-4 0  9993","EPHEMERIS_TYPE":"0","MEAN_ELEMENT_THEORY":"SGP4"},{"REV_AT_EPOCH":"9597","SITE":"AFETR","TIME_SYSTEM":"UTC","NORAD_CAT_ID":"45405","RCS_SIZE":"LARGE","OBJECT_TYPE":"PAYLOAD","MEAN_MOTION_DOT":"0.00001176","OBJECT_ID":"2020-019AX","SEMIMAJOR_AXIS":"6925.346","COUNTRY_CODE":"US","RA_OF_ASC_NODE":"262.8165","MEAN_MOTION_DDOT":"0.0000000000000","BSTAR":"0.00009788100000","PERIAPSIS":"545.593","EPOCH":"2021-12-08T21:56:41.454816","TLE_LINE2":"2 45405  53.0534 262.8165 0002336  62.2097 297.9128 15.06400937 95973","CENTER_NAME":"EARTH","LAUNCH_DATE":"2020-03-18","ELEMENT_SET_NO":"999","INCLINATION":"53.0534","FILE":"3235972","REF_FRAME":"TEME","MEAN_MOTION":"15.06400937","MEAN_ANOMALY":"297.9128","ARG_OF_PERICENTER":"62.2097","OBJECT_NAME":"STARLINK-1263","APOAPSIS":"548.828","GP_ID":"191362577","EPHEMERIS_TYPE":"0","TLE_LINE1":"1 45405U 20019AX  21342.91436869  .00001176  00000-0  97881-4 0  9990","MEAN_ELEMENT_THEORY":"SGP4","CLASSIFICATION_TYPE":"U","PERIOD":"95.592","DECAY_DATE":null,"ECCENTRICITY":"0.00023360"},{"TLE_LINE2":"2 45406  53.0544 262.7685 0002156  57.9611 302.1587 15.06396380 95978","PERIAPSIS":"545.732","EPOCH":"2021-12-08T22:07:18.915744","MEAN_MOTION_DDOT":"0.0000000000000","BSTAR":"-0.00001759100000","COUNTRY_CODE":"US","RA_OF_ASC_NODE":"262.7685","CENTER_NAME":"EARTH","RCS_SIZE":"LARGE","NORAD_CAT_ID":"45406","TIME_SYSTEM":"UTC","SITE":"AFETR","REV_AT_EPOCH":"9597","SEMIMAJOR_AXIS":"6925.360","OBJECT_ID":"2020-019AY","OBJECT_TYPE":"PAYLOAD","MEAN_MOTION_DOT":"-0.00000544","MEAN_ELEMENT_THEORY":"SGP4","EPHEMERIS_TYPE":"0","TLE_LINE1":"1 45406U 20019AY  21342.92174671 -.00000544  00000-0 -17591-4 0  9992","ECCENTRICITY":"0.00021560","DECAY_DATE":null,"PERIOD":"95.592","CLASSIFICATION_TYPE":"U","ARG_OF_PERICENTER":"57.9611","MEAN_ANOMALY":"302.1587","MEAN_MOTION":"15.06396380","INCLINATION":"53.0544","FILE":"3235972","REF_FRAME":"TEME","LAUNCH_DATE":"2020-03-18","ELEMENT_SET_NO":"999","GP_ID":"191363328","APOAPSIS":"548.718","OBJECT_NAME":"STARLINK-1265"},{"MEAN_ELEMENT_THEORY":"SGP4","TLE_LINE1":"1 45407U 20019AZ  21342.93553948  .00000855  00000-0  76290-4 0  9996","EPHEMERIS_TYPE":"0","ECCENTRICITY":"0.00023280","DECAY_DATE":null,"PERIOD":"95.592","CLASSIFICATION_TYPE":"U","ARG_OF_PERICENTER":"60.7235","MEAN_ANOMALY":"299.3986","MEAN_MOTION":"15.06399165","FILE":"3235972","REF_FRAME":"TEME","INCLINATION":"53.0553","LAUNCH_DATE":"2020-03-18","ELEMENT_SET_NO":"999","GP_ID":"191362076","APOAPSIS":"548.828","OBJECT_NAME":"STARLINK-1275","TLE_LINE2":"2 45407  53.0553 262.7081 0002328  60.7235 299.3986 15.06399165 95978","PERIAPSIS":"545.604","EPOCH":"2021-12-08T22:27:10.611072","MEAN_MOTION_DDOT":"0.0000000000000","BSTAR":"0.00007629000000","COUNTRY_CODE":"US","RA_OF_ASC_NODE":"262.7081","CENTER_NAME":"EARTH","RCS_SIZE":"LARGE","TIME_SYSTEM":"UTC","NORAD_CAT_ID":"45407","SITE":"AFETR","REV_AT_EPOCH":"9597","SEMIMAJOR_AXIS":"6925.351","OBJECT_ID":"2020-019AZ","MEAN_MOTION_DOT":"0.00000855","OBJECT_TYPE":"PAYLOAD"},{"MEAN_ANOMALY":"304.5768","ARG_OF_PERICENTER":"55.5424","MEAN_MOTION":"15.06404185","FILE":"3235972","REF_FRAME":"TEME","INCLINATION":"53.0542","ELEMENT_SET_NO":"999","LAUNCH_DATE":"2020-03-18","GP_ID":"191362326","APOAPSIS":"548.694","OBJECT_NAME":"STARLINK-1278","MEAN_ELEMENT_THEORY":"SGP4","EPHEMERIS_TYPE":"0","TLE_LINE1":"1 45408U 20019BA  21342.88211433  .00001448  00000-0  11612-3 0  9996","ECCENTRICITY":"0.00021560","PERIOD":"95.592","DECAY_DATE":null,"CLASSIFICATION_TYPE":"U","RCS_SIZE":"LARGE","NORAD_CAT_ID":"45408","TIME_SYSTEM":"UTC","SITE":"AFETR","REV_AT_EPOCH":"9555","SEMIMAJOR_AXIS":"6925.336","OBJECT_ID":"2020-019BA","OBJECT_TYPE":"PAYLOAD","MEAN_MOTION_DOT":"0.00001448","TLE_LINE2":"2 45408  53.0542 292.9533 0002156  55.5424 304.5768 15.06404185 95555","EPOCH":"2021-12-08T21:10:14.678112","PERIAPSIS":"545.708","BSTAR":"0.00011612000000","MEAN_MOTION_DDOT":"0.0000000000000","RA_OF_ASC_NODE":"292.9533","COUNTRY_CODE":"US","CENTER_NAME":"EARTH"},{"EPHEMERIS_TYPE":"0","TLE_LINE1":"1 45409U 20019BB  21342.94385771  .00000563  00000-0  56697-4 0  9991","MEAN_ELEMENT_THEORY":"SGP4","ECCENTRICITY":"0.00020420","CLASSIFICATION_TYPE":"U","DECAY_DATE":null,"PERIOD":"95.592","MEAN_MOTION":"15.06396604","MEAN_ANOMALY":"298.8144","ARG_OF_PERICENTER":"61.3050","LAUNCH_DATE":"2020-03-18","ELEMENT_SET_NO":"999","REF_FRAME":"TEME","FILE":"3235972","INCLINATION":"53.0534","GP_ID":"191363078","OBJECT_NAME":"STARLINK-1282","APOAPSIS":"548.638","PERIAPSIS":"545.810","EPOCH":"2021-12-08T22:39:09.306144","TLE_LINE2":"2 45409  53.0534 262.6828 0002042  61.3050 298.8144 15.06396604 95988","COUNTRY_CODE":"US","RA_OF_ASC_NODE":"262.6828","MEAN_MOTION_DDOT":"0.0000000000000","BSTAR":"0.00005669700000","CENTER_NAME":"EARTH","TIME_SYSTEM":"UTC","NORAD_CAT_ID":"45409","RCS_SIZE":"LARGE","REV_AT_EPOCH":"9598","SITE":"AFETR","OBJECT_ID":"2020-019BB","SEMIMAJOR_AXIS":"6925.359","OBJECT_TYPE":"PAYLOAD","MEAN_MOTION_DOT":"0.00000563"},{"MEAN_MOTION":"15.76740129","ARG_OF_PERICENTER":"83.5953","MEAN_ANOMALY":"276.5197","ELEMENT_SET_NO":"999","LAUNCH_DATE":"2020-03-18","FILE":"3235972","INCLINATION":"53.0566","REF_FRAME":"TEME","GP_ID":"191362828","OBJECT_NAME":"STARLINK-1285","APOAPSIS":"340.453","TLE_LINE1":"1 45410U 20019BC  21342.83262021  .00000073  00000-0  44462-5 0  9997","EPHEMERIS_TYPE":"0","MEAN_ELEMENT_THEORY":"SGP4","ECCENTRICITY":"0.00011420","CLASSIFICATION_TYPE":"U","DECAY_DATE":null,"PERIOD":"91.328","NORAD_CAT_ID":"45410","TIME_SYSTEM":"UTC","RCS_SIZE":"LARGE","REV_AT_EPOCH":"9698","SITE":"AFETR","OBJECT_ID":"2020-019BC","SEMIMAJOR_AXIS":"6717.821","MEAN_MOTION_DOT":"0.00000073","OBJECT_TYPE":"PAYLOAD","EPOCH":"2021-12-08T19:58:58.386144","PERIAPSIS":"338.919","TLE_LINE2":"2 45410  53.0566 189.3237 0001142  83.5953 276.5197 15.76740129 96986","RA_OF_ASC_NODE":"189.3237","COUNTRY_CODE":"US","BSTAR":"0.00000444620000","MEAN_MOTION_DDOT":"0.0000000000000","CENTER_NAME":"EARTH"}];
